<?xml version="1.0" encoding="UTF-8" standalone="yes" ?>
<gpx version="1.1" creator="GPS Utility 5.32 - http://www.gpsu.co.uk"
  xsi:schemaLocation="http://www.topografix.com/GPX/1/1 http://www.topografix.com/GPX/1/1/gpx.xsd http://www.garmin.com/xmlschemas/WaypointExtension/v1 http://www8.garmin.com/xmlschemas/WaypointExtensionv1.xsd http://www.garmin.com/xmlschemas/TrackPointExtension/v1 http://www.garmin.com/xmlschemas/TrackPointExtensionv1.xsd http://www.garmin.com/xmlschemas/GpxExtensions/v3 http://www8.garmin.com/xmlschemas/GpxExtensionsv3.xsd http://www.garmin.com/xmlschemas/CreationTimeExtensions/v1 http://www.garmin.com/xmlschemas/CreationTimeExtensionsv1.xsd"
  xmlns="http://www.topografix.com/GPX/1/1"
  xmlns:xsi="http://www.w3.org/2001/XMLSchema-instance"
  xmlns:wptx1="http://www.garmin.com/xmlschemas/WaypointExtension/v1"
  xmlns:gpxtrx="http://www.garmin.com/xmlschemas/GpxExtensions/v3"
  xmlns:gpxtpx="http://www.garmin.com/xmlschemas/TrackPointExtension/v1"
  xmlns:gpxx="http://www.garmin.com/xmlschemas/GpxExtensions/v3"
  xmlns:ctx="http://www.garmin.com/xmlschemas/CreationTimeExtension/v1">

<wpt lat="37.847049" lon="-117.201019"><name>001</name><sym>Flag</sym></wpt>
<wpt lat="37.838973" lon="-117.207802"><name>002</name><sym>Flag</sym></wpt>
<wpt lat="37.828972" lon="-117.211112"><name>003</name><sym>Flag</sym></wpt>
<wpt lat="37.815808" lon="-117.209418"><name>004</name><sym>Flag</sym></wpt>
<wpt lat="37.808846" lon="-117.208277"><name>005</name><sym>Flag</sym></wpt>
<wpt lat="37.790957" lon="-117.211191"><name>006</name><sym>Flag</sym></wpt>
<wpt lat="37.790866" lon="-117.210786"><name>007</name><sym>Flag</sym></wpt>
<wpt lat="37.790785" lon="-117.210523"><name>008</name><sym>Flag</sym></wpt>
<wpt lat="37.791420" lon="-117.208617"><name>009</name><sym>Flag</sym></wpt>
<wpt lat="37.781209" lon="-117.210366"><name>010</name><sym>Flag</sym></wpt>
<wpt lat="37.781333" lon="-117.210181"><name>011</name><sym>Flag</sym></wpt>
<wpt lat="37.769628" lon="-117.213126"><name>012</name><sym>Flag</sym></wpt>
<wpt lat="37.760919" lon="-117.212991"><name>013</name><sym>Flag</sym></wpt>
<wpt lat="37.760991" lon="-117.213205"><name>014</name><sym>Flag</sym></wpt>
<wpt lat="37.890760" lon="-117.225926"><name>S245</name><sym>Flag</sym></wpt>
<wpt lat="37.880456" lon="-117.212376"><name>S246</name><sym>Flag</sym></wpt>
<wpt lat="37.868037" lon="-117.209721"><name>S247</name><sym>Flag</sym></wpt>
<wpt lat="37.853265" lon="-117.204627"><name>S248</name><sym>Flag</sym></wpt>
<wpt lat="37.840924" lon="-117.196268"><name>S249</name><sym>Flag</sym></wpt>
<wpt lat="37.834559" lon="-117.181991"><name>S250</name><sym>Flag</sym></wpt>
<wpt lat="37.832404" lon="-117.174443"><name>S251</name><sym>Flag</sym></wpt>
<wpt lat="37.824263" lon="-117.160570"><name>S252</name><sym>Flag</sym></wpt>
<wpt lat="37.816845" lon="-117.145620"><name>S253</name><sym>Flag</sym></wpt>
<wpt lat="37.810396" lon="-117.131399"><name>S254</name><sym>Flag</sym></wpt>
<wpt lat="32.799728" lon="-117.115181"><name>S255</name><sym>Flag</sym></wpt>

</gpx>
